{
  "norad_id": 32711,
  "name": "NAVSTAR 62 (USA 201)",
  "history": [
    {
      "epoch": "2026-03-27T08:56:45.660480Z",
      "apogee_km": 20734.831343275204,
      "perigee_km": 19628.467503928223,
      "latitude_deg": -9.271913810397399e-06,
      "longitude_deg": -165.79464708711265,
      "height_km": 20392.50975088584,
      "semi_major_axis_km": 26559.786423601712,
      "eccentricity": 0.0208278,
      "inclination_deg": 54.4839,
      "raan_deg": 153.1942,
      "arg_perigee_deg": 246.5928,
      "mean_anomaly_deg": 111.2592,
      "mean_motion_rev_day": 2.00569963
    },
    {
      "epoch": "2026-03-28T20:50:33.153792Z",
      "apogee_km": 20735.061658719424,
      "perigee_km": 19628.22218071305,
      "latitude_deg": 8.303987953460841e-05,
      "longitude_deg": 14.224470167017921,
      "height_km": 20392.384590417314,
      "semi_major_axis_km": 26559.77891971624,
      "eccentricity": 0.02083676,
      "inclination_deg": 54.4841,
      "raan_deg": 153.1344,
      "arg_perigee_deg": 246.6185,
      "mean_anomaly_deg": 111.2367,
      "mean_motion_rev_day": 2.00570048
    },
    {
      "epoch": "2026-03-30T08:44:20.936544Z",
      "apogee_km": 20735.244109682713,
      "perigee_km": 19628.02825322619,
      "latitude_deg": 7.648009365016209e-05,
      "longitude_deg": -165.7578767759826,
      "height_km": 20392.200965570046,
      "semi_major_axis_km": 26559.77318145445,
      "eccentricity": 0.02084385,
      "inclination_deg": 54.4843,
      "raan_deg": 153.0746,
      "arg_perigee_deg": 246.6476,
      "mean_anomaly_deg": 111.2137,
      "mean_motion_rev_day": 2.00570113
    },
    {
      "epoch": "2026-03-31T08:40:12.732672Z",
      "apogee_km": 20735.387142923344,
      "perigee_km": 19627.871448165442,
      "latitude_deg": -2.789616090930147e-05,
      "longitude_deg": -165.74626559672254,
      "height_km": 20392.097425197517,
      "semi_major_axis_km": 26559.766295544392,
      "eccentricity": 0.0208495,
      "inclination_deg": 54.4844,
      "raan_deg": 153.0347,
      "arg_perigee_deg": 246.6642,
      "mean_anomaly_deg": 111.201,
      "mean_motion_rev_day": 2.00570191
    },
    {
      "epoch": "2026-04-01T08:36:04.518432Z",
      "apogee_km": 20735.5188602918,
      "perigee_km": 19627.73761205622,
      "latitude_deg": -2.7955996124855974e-05,
      "longitude_deg": -165.7347306069839,
      "height_km": 20391.96768155778,
      "semi_major_axis_km": 26559.765236174007,
      "eccentricity": 0.0208545,
      "inclination_deg": 54.4845,
      "raan_deg": 152.9949,
      "arg_perigee_deg": 246.6827,
      "mean_anomaly_deg": 111.1856,
      "mean_motion_rev_day": 2.00570203
    },
    {
      "epoch": "2026-04-02T08:31:56.042400Z",
      "apogee_km": 20735.648106191857,
      "perigee_km": 19627.597242770626,
      "latitude_deg": 1.4821630496375955e-05,
      "longitude_deg": -165.72244373479228,
      "height_km": 20391.8466217024,
      "semi_major_axis_km": 26559.75967448124,
      "eccentricity": 0.02085958,
      "inclination_deg": 54.4846,
      "raan_deg": 152.955,
      "arg_perigee_deg": 246.6989,
      "mean_anomaly_deg": 111.1711,
      "mean_motion_rev_day": 2.00570266
    },
    {
      "epoch": "2026-04-03T08:27:47.338272Z",
      "apogee_km": 20735.779405778507,
      "perigee_km": 19627.45676198125,
      "latitude_deg": 3.3838102384669844e-05,
      "longitude_deg": -165.70932657237358,
      "height_km": 20391.71123438351,
      "semi_major_axis_km": 26559.755083879878,
      "eccentricity": 0.0208647,
      "inclination_deg": 54.4847,
      "raan_deg": 152.9152,
      "arg_perigee_deg": 246.7161,
      "mean_anomaly_deg": 111.1539,
      "mean_motion_rev_day": 2.00570318
    },
    {
      "epoch": "2026-04-04T08:23:38.450112Z",
      "apogee_km": 20735.894598767216,
      "perigee_km": 19627.33309403969,
      "latitude_deg": -1.367231934962297e-05,
      "longitude_deg": -165.69570116947008,
      "height_km": 20391.58052589481,
      "semi_major_axis_km": 26559.750846403454,
      "eccentricity": 0.0208692,
      "inclination_deg": 54.4848,
      "raan_deg": 152.8753,
      "arg_perigee_deg": 246.7317,
      "mean_anomaly_deg": 111.1368,
      "mean_motion_rev_day": 2.00570366
    },
    {
      "epoch": "2026-04-05T08:19:29.448768Z",
      "apogee_km": 20736.0196522367,
      "perigee_km": 19627.203273410734,
      "latitude_deg": -8.224845765511744e-07,
      "longitude_deg": -165.68147330402516,
      "height_km": 20391.450335082936,
      "semi_major_axis_km": 26559.748462823714,
      "eccentricity": 0.020874,
      "inclination_deg": 54.4849,
      "raan_deg": 152.8355,
      "arg_perigee_deg": 246.7478,
      "mean_anomaly_deg": 111.1181,
      "mean_motion_rev_day": 2.00570393
    },
    {
      "epoch": "2026-04-05T08:19:29.449632Z",
      "apogee_km": 20736.020714626637,
      "perigee_km": 19627.202211020794,
      "latitude_deg": 2.6035259526278694e-06,
      "longitude_deg": -165.68147447278946,
      "height_km": 20391.450755143254,
      "semi_major_axis_km": 26559.748462823714,
      "eccentricity": 0.02087404,
      "inclination_deg": 54.4849,
      "raan_deg": 152.8355,
      "arg_perigee_deg": 246.7478,
      "mean_anomaly_deg": 111.1181,
      "mean_motion_rev_day": 2.00570393
    },
    {
      "epoch": "2026-04-07T08:11:11.092704Z",
      "apogee_km": 20736.28677105899,
      "perigee_km": 19626.918321890204,
      "latitude_deg": 9.200437207863332e-06,
      "longitude_deg": -165.65134075790272,
      "height_km": 20391.1925545781,
      "semi_major_axis_km": 26559.739546474597,
      "eccentricity": 0.0208844,
      "inclination_deg": 54.4852,
      "raan_deg": 152.7558,
      "arg_perigee_deg": 246.7811,
      "mean_anomaly_deg": 111.0782,
      "mean_motion_rev_day": 2.00570494
    },
    {
      "epoch": "2026-04-07T08:11:11.093568Z",
      "apogee_km": 20736.287833448572,
      "perigee_km": 19626.91725950062,
      "latitude_deg": 1.262704131026133e-05,
      "longitude_deg": -165.65134192609224,
      "height_km": 20391.192973978545,
      "semi_major_axis_km": 26559.739546474597,
      "eccentricity": 0.02088444,
      "inclination_deg": 54.4852,
      "raan_deg": 152.7558,
      "arg_perigee_deg": 246.7811,
      "mean_anomaly_deg": 111.0782,
      "mean_motion_rev_day": 2.00570494
    },
    {
      "epoch": "2026-04-07T20:09:06.588576Z",
      "apogee_km": 20736.357173474054,
      "perigee_km": 19626.85003821078,
      "latitude_deg": 2.9066817098866367e-05,
      "longitude_deg": 14.355887647094479,
      "height_km": 20391.12166738177,
      "semi_major_axis_km": 26559.740605842417,
      "eccentricity": 0.02088701,
      "inclination_deg": 54.4853,
      "raan_deg": 152.7358,
      "arg_perigee_deg": 246.7909,
      "mean_anomaly_deg": 111.0669,
      "mean_motion_rev_day": 2.00570482
    },
    {
      "epoch": "2026-04-10T07:58:44.148288Z",
      "apogee_km": 20736.686285524058,
      "perigee_km": 19626.505388771,
      "latitude_deg": -1.8402808487941933e-05,
      "longitude_deg": -165.6071965863108,
      "height_km": 20390.824834011135,
      "semi_major_axis_km": 26559.732837147527,
      "eccentricity": 0.0208997,
      "inclination_deg": 54.4856,
      "raan_deg": 152.6362,
      "arg_perigee_deg": 246.8341,
      "mean_anomaly_deg": 111.0201,
      "mean_motion_rev_day": 2.0057057
    },
    {
      "epoch": "2026-04-10T07:58:44.164704Z",
      "apogee_km": 20736.685133009123,
      "perigee_km": 19626.50636472475,
      "latitude_deg": -4.616997373678864e-05,
      "longitude_deg": -165.60728501468338,
      "height_km": 20390.84124417077,
      "semi_major_axis_km": 26559.732748866936,
      "eccentricity": 0.02089966,
      "inclination_deg": 54.4857,
      "raan_deg": 152.6362,
      "arg_perigee_deg": 246.8322,
      "mean_anomaly_deg": 111.022,
      "mean_motion_rev_day": 2.00570571
    },
    {
      "epoch": "2026-04-12T07:50:26.931840Z",
      "apogee_km": 20736.92206422314,
      "perigee_km": 19626.261664820162,
      "latitude_deg": 4.784194073603279e-05,
      "longitude_deg": -165.5799953990618,
      "height_km": 20390.610593179426,
      "semi_major_axis_km": 26559.72886452165,
      "eccentricity": 0.02090873,
      "inclination_deg": 54.486,
      "raan_deg": 152.5565,
      "arg_perigee_deg": 246.8675,
      "mean_anomaly_deg": 110.9903,
      "mean_motion_rev_day": 2.00570615
    },
    {
      "epoch": "2026-04-14T07:42:10.158624Z",
      "apogee_km": 20737.16329755125,
      "perigee_km": 19626.01848931985,
      "latitude_deg": -1.7843509445518565e-06,
      "longitude_deg": -165.55491932817142,
      "height_km": 20390.409768412155,
      "semi_major_axis_km": 26559.72789343555,
      "eccentricity": 0.02091785,
      "inclination_deg": 54.4862,
      "raan_deg": 152.4768,
      "arg_perigee_deg": 246.8993,
      "mean_anomaly_deg": 110.9652,
      "mean_motion_rev_day": 2.00570626
    },
    {
      "epoch": "2026-04-15T07:38:01.623840Z",
      "apogee_km": 20737.282351332433,
      "perigee_km": 19625.896963683408,
      "latitude_deg": 1.894577764513905e-05,
      "longitude_deg": -165.54213123742204,
      "height_km": 20390.284985571332,
      "semi_major_axis_km": 26559.72665750792,
      "eccentricity": 0.02092238,
      "inclination_deg": 54.4864,
      "raan_deg": 152.4369,
      "arg_perigee_deg": 246.9169,
      "mean_anomaly_deg": 110.9503,
      "mean_motion_rev_day": 2.0057064
    },
    {
      "epoch": "2026-04-17T07:29:43.847520Z",
      "apogee_km": 20737.53558354047,
      "perigee_km": 19625.6371987164,
      "latitude_deg": 2.4026764557892775e-05,
      "longitude_deg": -165.5144807677549,
      "height_km": 20390.023538373935,
      "semi_major_axis_km": 26559.723391128435,
      "eccentricity": 0.02093204,
      "inclination_deg": 54.4866,
      "raan_deg": 152.3572,
      "arg_perigee_deg": 246.9515,
      "mean_anomaly_deg": 110.9154,
      "mean_motion_rev_day": 2.00570677
    }
  ]
}